OBJECT_NAME,OBJECT_ID,EPOCH,MEAN_MOTION,ECCENTRICITY,INCLINATION,RA_OF_ASC_NODE,ARG_OF_PERICENTER,MEAN_ANOMALY,EPHEMERIS_TYPE,CLASSIFICATION_TYPE,NORAD_CAT_ID,ELEMENT_SET_NO,REV_AT_EPOCH,BSTAR,MEAN_MOTION_DOT,MEAN_MOTION_DDOT
M2 PATHFINDER,2020-037E,2026-07-18T12:00:39.445920,15.04796790,.00126028,97.8140,31.0865,52.1110,308.1253,0,U,45727,999,33020,.58406323E-4,.761E-5,0
NETSAT-4,2020-068U,2026-07-18T11:37:48.258048,15.44824572,.00051455,97.8607,210.2643,181.7593,178.3637,0,U,46504,999,32060,.19939976E-3,.925E-4,0
NETSAT-3,2020-068V,2026-07-18T10:47:25.057248,15.43676171,.00042357,97.8659,208.4051,197.1084,163.0021,0,U,46505,999,32050,.21994705E-3,.9822E-4,0
NETSAT-1,2020-068W,2026-07-18T11:47:18.829824,15.35290298,.00026324,97.8760,202.4040,243.0014,117.0959,0,U,46506,999,32010,.19023457E-3,.6429E-4,0
NETSAT-2,2020-068X,2026-07-18T14:35:03.413760,15.47257126,.00026501,97.8619,210.4139,194.3581,165.7592,0,U,46507,999,32059,.2529379E-3,.12787E-3,0
GREENCUBE (IO-117),2022-080E,2026-07-17T05:19:51.690720,6.42583336,.0009072,70.1407,287.8015,282.9900,76.9746,0,U,53109,999,9399,0,-.3E-7,0
SITRO-AIS 5 (KATYS),2023-091L,2026-07-18T14:20:20.936256,15.30107283,.00103043,97.5038,263.8079,0.3225,359.8020,0,U,57176,999,16914,.20675161E-3,.5954E-4,0
SITRO-AIS 6 (CHIRKIN),2023-091AC,2026-07-18T14:01:42.364704,15.26472247,.00108085,97.5047,262.7444,4.7185,355.4153,0,U,57192,999,16907,.18797426E-3,.4834E-4,0
SITRO-AIS 8 (ANOKHIN),2023-091AD,2026-07-18T14:57:55.885536,15.32909522,.00091501,97.5035,265.5540,355.3950,4.7206,0,U,57193,999,16926,.21307862E-3,.67E-4,0
SITRO-AIS 7 (FARTUSHNIY),2023-091AE,2026-07-18T14:15:42.026688,15.26145318,.00107809,97.5043,262.5625,6.0324,354.1042,0,U,57194,999,16906,.18402287E-3,.4684E-4,0
SITRO-AIS 10 (BURDAEV),2023-091AK,2026-07-18T14:01:46.883424,15.39703222,.00045843,97.5060,270.9009,325.9854,34.1097,0,U,57199,999,16959,.25692224E-3,.1007E-3,0
SITRO-AIS 9 (SHCHUKIN),2023-091AM,2026-07-18T14:54:35.205984,15.39187031,.00048363,97.5058,270.6431,326.6587,33.4353,0,U,57201,999,16958,.26041522E-3,.10036E-3,0
SITRO-AIS 12 (SMIRENNIY),2023-091AQ,2026-07-18T14:32:27.115296,15.39482475,.00044574,97.5071,271.1145,318.4500,41.6406,0,U,57204,999,16960,.26884304E-3,.10465E-3,0
SITRO-AIS 11 (SHEFFER),2023-091AU,2026-07-18T14:38:58.886592,15.39929291,.00043921,97.5069,271.3860,317.3627,42.7277,0,U,57208,999,16962,.27867592E-3,.11012E-3,0
SITRO-AIS 25,2024-039R,2026-07-18T14:18:57.968064,14.93654020,.01430622,95.3890,256.6759,217.4957,141.6225,0,U,59066,999,12941,.11568494E-3,.146E-4,0
SITRO-AIS 26,2024-039S,2026-07-18T16:03:40.088736,14.93445070,.01433967,95.3890,256.6170,217.8564,141.2512,0,U,59067,999,12941,.10022737E-3,.1253E-4,0
SITRO-AIS 27,2024-039T,2026-07-18T15:08:02.333184,14.93869228,.01425132,95.3895,256.8770,216.5043,142.6405,0,U,59068,999,12943,.13197654E-3,.1678E-4,0
SITRO-AIS 28,2024-039U,2026-07-18T14:34:32.239776,14.93903530,.01423722,95.3894,256.9099,216.4321,142.7153,0,U,59071,999,12943,.9991313E-4,.1262E-4,0
GRBBETA,2024-128C,2026-07-18T03:29:49.303392,15.06819541,.00366939,61.9888,107.6324,141.3297,219.0434,0,U,60237,999,11093,.12491036E-3,.1676E-4,0
OOV-CUBE (TUBSAT-30),2024-128F,2026-07-18T07:51:47.200896,15.02880941,.00407214,61.9941,116.9785,140.6907,219.7153,0,U,60240,999,11079,.8229489E-4,.912E-5,0
ROBUSTA-3A (MEDITERRANEE),2024-128J,2026-07-18T05:17:38.780736,15.12010670,.00377385,61.9862,98.4708,134.2133,226.2073,0,U,60243,999,11111,.21667641E-3,.3573E-4,0
LASARSAT,2024-247Q,2026-07-17T23:09:42.630336,15.48162669,.00078224,44.9738,89.0178,183.9645,176.1185,0,U,62391,999,8808,.40982684E-3,.21749E-3,0
CROCUBE,2024-247T,2026-07-18T01:14:03.621984,15.50337911,.0007952,44.9717,85.3241,190.6183,169.4541,0,U,62394,999,8813,.43051364E-3,.2472E-3,0
FORESAIL-1 PRIME,2025-276DS,2026-07-18T13:17:42.423936,15.18954100,.00026041,97.4187,272.2539,37.5376,322.6040,0,U,66778,999,3516,.11370332E-3,.2308E-4,0
KNACKSAT-2,1998-067XZ,2026-07-18T01:44:50.703648,15.62605935,.00079174,51.6275,138.8026,337.9309,22.1343,0,U,67683,999,2510,.3768944E-3,.34011E-3,0
